{"type": "FeatureCollection", "attribution": "Map data © OpenStreetMap contributors (ODbL). Street paths computed with OSRM from Parroquia San Isidro Labrador to each destination; they approximate, not trace, the operator's real routes.", "features": [{"type": "Feature", "properties": {"routeId": "R142", "name": "Ruta 142 · San José – San Isidro de Coronado", "km": 11.33}, "geometry": {"type": "LineString", "coordinates": [[-84.079187, 9.932732], [-84.079152, 9.933142], [-84.079095, 9.934028], [-84.079023, 9.934887], [-84.078975, 9.935575], [-84.078963, 9.935754], [-84.0789, 9.936628], [-84.078855, 9.937307], [-84.078834, 9.937545], [-84.078644, 9.937502], [-84.078504, 9.937471], [-84.078363, 9.937439], [-84.078073, 9.937376], [-84.077934, 9.937346], [-84.077196, 9.937187], [-84.076458, 9.937034], [-84.076142, 9.936969], [-84.075798, 9.936892], [-84.07548, 9.936825], [-84.075401, 9.936808], [-84.075049, 9.936735], [-84.074817, 9.936684], [-84.074762, 9.936672], [-84.074154, 9.936541], [-84.074014, 9.936506], [-84.073537, 9.93639], [-84.073308, 9.936335], [-84.073075, 9.936296], [-84.072965, 9.936284], [-84.072329, 9.936223], [-84.072022, 9.936206], [-84.071704, 9.936193], [-84.071146, 9.936163], [-84.0711, 9.93616], [-84.070917, 9.936147], [-84.070897, 9.936146], [-84.070468, 9.936057], [-84.070335, 9.936503], [-84.070331, 9.936515], [-84.070304, 9.936594], [-84.070229, 9.936812], [-84.070097, 9.93723], [-84.070062, 9.937345], [-84.069893, 9.937836], [-84.069455, 9.937667], [-84.069374, 9.937636], [-84.068547, 9.937316], [-84.067719, 9.936999], [-84.067144, 9.936775], [-84.066899, 9.936681], [-84.066769, 9.937013], [-84.0667, 9.937191], [-84.066583, 9.937491], [-84.066552, 9.937574], [-84.066281, 9.938301], [-84.066259, 9.938365], [-84.066234, 9.938454], [-84.066159, 9.938854], [-84.066099, 9.93921], [-84.066014, 9.939295], [-84.065901, 9.939512], [-84.065882, 9.939541], [-84.06585, 9.939573], [-84.065808, 9.939601], [-84.065755, 9.939627], [-84.065487, 9.939758], [-84.065435, 9.939802], [-84.065391, 9.939857], [-84.065373, 9.939892], [-84.065356, 9.939946], [-84.065309, 9.940208], [-84.065238, 9.940673], [-84.065147, 9.940982], [-84.065073, 9.941249], [-84.065038, 9.941348], [-84.065024, 9.941397], [-84.064996, 9.941491], [-84.064942, 9.941673], [-84.064919, 9.941749], [-84.064862, 9.941942], [-84.06484, 9.942018], [-84.064825, 9.942072], [-84.064801, 9.942124], [-84.064777, 9.942161], [-84.064751, 9.942192], [-84.064715, 9.942225], [-84.064676, 9.942252], [-84.064495, 9.942281], [-84.064323, 9.942306], [-84.064271, 9.942295], [-84.064063, 9.94233], [-84.064007, 9.942339], [-84.063658, 9.942398], [-84.063531, 9.942419], [-84.062889, 9.942527], [-84.062789, 9.942544], [-84.062544, 9.942585], [-84.062227, 9.942638], [-84.062146, 9.942651], [-84.061925, 9.942688], [-84.061168, 9.942822], [-84.061135, 9.942829], [-84.061046, 9.942843], [-84.060997, 9.942846], [-84.060964, 9.94284], [-84.060827, 9.942804], [-84.060784, 9.942726], [-84.06072, 9.942663], [-84.060642, 9.942619], [-84.060554, 9.942599], [-84.060489, 9.9426], [-84.060426, 9.942613], [-84.060367, 9.942639], [-84.060314, 9.942676], [-84.060251, 9.942753], [-84.060235, 9.942778], [-84.060212, 9.942839], [-84.060108, 9.943027], [-84.060044, 9.94311], [-84.060009, 9.943134], [-84.059899, 9.943193], [-84.059623, 9.943343], [-84.058951, 9.943706], [-84.058421, 9.943993], [-84.057771, 9.944345], [-84.05608, 9.94526], [-84.055169, 9.945753], [-84.054423, 9.946156], [-84.053641, 9.946579], [-84.053592, 9.946487], [-84.053504, 9.946323], [-84.053414, 9.946155], [-84.053248, 9.945843], [-84.052936, 9.946011], [-84.052858, 9.946054], [-84.052491, 9.946251], [-84.052425, 9.946287], [-84.052627, 9.946656], [-84.052785, 9.946944], [-84.052805, 9.94698], [-84.052825, 9.947017], [-84.052435, 9.947232], [-84.052049, 9.947441], [-84.051299, 9.947846], [-84.050537, 9.948258], [-84.049756, 9.948686], [-84.048939, 9.949136], [-84.048736, 9.949302], [-84.04863, 9.949403], [-84.048434, 9.949589], [-84.048217, 9.949788], [-84.047959, 9.950024], [-84.047804, 9.950159], [-84.047617, 9.950323], [-84.047573, 9.950372], [-84.047519, 9.950456], [-84.04747, 9.95051], [-84.047385, 9.950587], [-84.046714, 9.951178], [-84.046272, 9.951565], [-84.046054, 9.951756], [-84.04548, 9.95226], [-84.045379, 9.95235], [-84.045297, 9.952423], [-84.045126, 9.952573], [-84.045047, 9.952643], [-84.044935, 9.952742], [-84.044627, 9.953], [-84.043945, 9.953574], [-84.04379, 9.953704], [-84.043456, 9.953985], [-84.042875, 9.954473], [-84.042729, 9.954596], [-84.042447, 9.954833], [-84.042406, 9.954867], [-84.042208, 9.955034], [-84.042029, 9.955184], [-84.041453, 9.955668], [-84.040932, 9.956171], [-84.040893, 9.956207], [-84.040747, 9.956363], [-84.040487, 9.956641], [-84.040228, 9.95691], [-84.040099, 9.957049], [-84.039847, 9.957357], [-84.039765, 9.957447], [-84.039683, 9.957537], [-84.039475, 9.957761], [-84.039177, 9.958147], [-84.038789, 9.958695], [-84.038629, 9.958954], [-84.038441, 9.959248], [-84.038378, 9.959343], [-84.038269, 9.95954], [-84.038143, 9.959706], [-84.038041, 9.959822], [-84.037916, 9.959955], [-84.037806, 9.960043], [-84.037712, 9.960139], [-84.037436, 9.96042], [-84.037213, 9.960622], [-84.036421, 9.961332], [-84.035485, 9.962154], [-84.034985, 9.962567], [-84.034521, 9.962892], [-84.034251, 9.963071], [-84.034121, 9.963178], [-84.033999, 9.963315], [-84.033719, 9.963711], [-84.033617, 9.963867], [-84.033505, 9.963998], [-84.033383, 9.964114], [-84.033251, 9.964209], [-84.0331, 9.964296], [-84.032949, 9.964341], [-84.032887, 9.964359], [-84.032834, 9.964372], [-84.032537, 9.964362], [-84.03206, 9.964286], [-84.031853, 9.964255], [-84.031692, 9.964252], [-84.031523, 9.96427], [-84.031364, 9.964314], [-84.031107, 9.964434], [-84.030888, 9.964578], [-84.030759, 9.96467], [-84.030606, 9.964783], [-84.03035, 9.964962], [-84.029955, 9.965142], [-84.029597, 9.965275], [-84.029431, 9.965339], [-84.029257, 9.965405], [-84.028894, 9.965539], [-84.028535, 9.965667], [-84.028121, 9.965728], [-84.027725, 9.965747], [-84.027608, 9.965748], [-84.027508, 9.96575], [-84.027406, 9.965751], [-84.027346, 9.965751], [-84.027311, 9.965751], [-84.027082, 9.965763], [-84.026815, 9.965796], [-84.026657, 9.965828], [-84.026476, 9.965899], [-84.026367, 9.965945], [-84.026218, 9.966027], [-84.025967, 9.966216], [-84.025744, 9.966409], [-84.025497, 9.966615], [-84.025299, 9.966737], [-84.025135, 9.9668], [-84.024982, 9.966824], [-84.024891, 9.966831], [-84.024741, 9.96684], [-84.024595, 9.966814], [-84.023963, 9.966509], [-84.023812, 9.966445], [-84.023609, 9.966385], [-84.023414, 9.966348], [-84.022954, 9.966308], [-84.022372, 9.966275], [-84.022135, 9.966245], [-84.021746, 9.966227], [-84.021151, 9.966203], [-84.019442, 9.966109], [-84.019134, 9.966084], [-84.018979, 9.966064], [-84.018862, 9.96604], [-84.018772, 9.966012], [-84.018645, 9.965936], [-84.018318, 9.965603], [-84.018198, 9.96546], [-84.0181, 9.965368], [-84.017959, 9.965235], [-84.01782, 9.965119], [-84.017692, 9.965053], [-84.017543, 9.965013], [-84.017248, 9.964975], [-84.016933, 9.964964], [-84.016727, 9.964952], [-84.01634, 9.964936], [-84.016158, 9.964929], [-84.015456, 9.964898], [-84.014532, 9.964865], [-84.013663, 9.964829], [-84.012799, 9.964791], [-84.011744, 9.964747], [-84.011275, 9.964729], [-84.011115, 9.964723], [-84.010673, 9.964734], [-84.01058, 9.964747], [-84.010542, 9.965031], [-84.010487, 9.965411], [-84.010448, 9.96568], [-84.010423, 9.965851], [-84.010414, 9.965907], [-84.010302, 9.966603], [-84.010255, 9.967], [-84.010218, 9.967514], [-84.010211, 9.967654], [-84.010205, 9.967822], [-84.010204, 9.967911], [-84.010216, 9.968044], [-84.009778, 9.96814], [-84.009481, 9.968182], [-84.009157, 9.968223], [-84.009052, 9.968783], [-84.009019, 9.969041], [-84.009, 9.969157], [-84.008983, 9.969267], [-84.008946, 9.969523], [-84.008896, 9.969859], [-84.008628, 9.972229], [-84.008436, 9.973886], [-84.008327, 9.974825], [-84.008232, 9.975737], [-84.007343, 9.975629], [-84.007282, 9.976073]]}}, {"type": "Feature", "properties": {"routeId": "R142-01", "name": "Ramal Cascajal", "km": 19.12}, "geometry": {"type": "LineString", "coordinates": [[-84.007282, 9.976073], [-84.007224, 9.976498], [-84.007114, 9.977399], [-84.00705, 9.978095], [-84.007031, 9.978227], [-84.0068, 9.979105], [-84.006727, 9.979345], [-84.006678, 9.979507], [-84.006638, 9.979601], [-84.00662, 9.979646], [-84.006405, 9.979998], [-84.006123, 9.980325], [-84.006104, 9.980365], [-84.006031, 9.98067], [-84.005958, 9.980984], [-84.005912, 9.981085], [-84.005868, 9.981163], [-84.005774, 9.981269], [-84.005676, 9.981337], [-84.005588, 9.981374], [-84.005481, 9.981407], [-84.005304, 9.981422], [-84.00511, 9.981417], [-84.004897, 9.9814], [-84.004155, 9.981341], [-84.003955, 9.981333], [-84.003755, 9.98131], [-84.003387, 9.981237], [-84.003101, 9.981118], [-84.002723, 9.98106], [-84.001959, 9.980992], [-84.001565, 9.98101], [-84.001296, 9.981077], [-84.000874, 9.981182], [-84.000361, 9.981295], [-83.999935, 9.981315], [-83.999797, 9.98132], [-83.999595, 9.981308], [-83.999187, 9.981278], [-83.998753, 9.981219], [-83.998467, 9.981187], [-83.998011, 9.981137], [-83.997872, 9.981122], [-83.997294, 9.981064], [-83.996799, 9.981042], [-83.996159, 9.981072], [-83.995733, 9.981092], [-83.9956, 9.9811], [-83.995355, 9.981116], [-83.995305, 9.981117], [-83.99487, 9.981125], [-83.99453, 9.981141], [-83.994285, 9.981137], [-83.994119, 9.981114], [-83.994025, 9.981086], [-83.993867, 9.981017], [-83.993718, 9.980942], [-83.993487, 9.980752], [-83.993366, 9.980582], [-83.993217, 9.980396], [-83.993061, 9.98025], [-83.992814, 9.980085], [-83.992235, 9.979765], [-83.992103, 9.979721], [-83.991976, 9.979712], [-83.991872, 9.979737], [-83.991598, 9.979802], [-83.991474, 9.979849], [-83.991273, 9.979926], [-83.991183, 9.979961], [-83.991106, 9.97999], [-83.990974, 9.980127], [-83.990743, 9.980479], [-83.990401, 9.98086], [-83.99004, 9.981262], [-83.989882, 9.981405], [-83.989738, 9.981536], [-83.989603, 9.981622], [-83.989418, 9.98174], [-83.989378, 9.981766], [-83.989009, 9.981892], [-83.988643, 9.981945], [-83.98832, 9.981954], [-83.987933, 9.981897], [-83.987019, 9.981553], [-83.986676, 9.981475], [-83.986318, 9.98146], [-83.985776, 9.981493], [-83.985513, 9.98151], [-83.984882, 9.981562], [-83.984013, 9.981679], [-83.983717, 9.981746], [-83.983677, 9.981755], [-83.983499, 9.981791], [-83.982385, 9.982056], [-83.982166, 9.982144], [-83.981961, 9.982273], [-83.98178, 9.982426], [-83.981292, 9.982862], [-83.980524, 9.983547], [-83.980194, 9.983719], [-83.979981, 9.983778], [-83.979836, 9.983804], [-83.979533, 9.983797], [-83.979445, 9.983777], [-83.97925, 9.983732], [-83.978859, 9.983531], [-83.978548, 9.983425], [-83.978342, 9.983409], [-83.977967, 9.983501], [-83.977536, 9.983638], [-83.977446, 9.983645], [-83.976705, 9.983447], [-83.976205, 9.983367], [-83.974469, 9.983195], [-83.973543, 9.982981], [-83.973084, 9.982947], [-83.97268, 9.98296], [-83.972366, 9.982957], [-83.972124, 9.982888], [-83.971902, 9.982775], [-83.971655, 9.982534], [-83.971526, 9.982252], [-83.971459, 9.981708], [-83.971333, 9.981413], [-83.9712, 9.981287], [-83.970984, 9.981192], [-83.970725, 9.981168], [-83.969856, 9.981284], [-83.969601, 9.981328], [-83.969412, 9.981406], [-83.969212, 9.981521], [-83.968968, 9.981697], [-83.968914, 9.981741], [-83.968396, 9.982106], [-83.968245, 9.98225], [-83.968122, 9.982473], [-83.968077, 9.98265], [-83.968015, 9.982892], [-83.967972, 9.982987], [-83.967834, 9.98315], [-83.967743, 9.983223], [-83.967618, 9.98327], [-83.96739, 9.983306], [-83.967177, 9.983273], [-83.967076, 9.983233], [-83.966976, 9.983158], [-83.966874, 9.983044], [-83.966706, 9.982808], [-83.966542, 9.982621], [-83.966277, 9.982509], [-83.966011, 9.982495], [-83.965885, 9.982519], [-83.964567, 9.982939], [-83.964289, 9.983057], [-83.964176, 9.983132], [-83.964051, 9.98331], [-83.963992, 9.983545], [-83.964015, 9.983991], [-83.963977, 9.984139], [-83.963798, 9.984362], [-83.963664, 9.984458], [-83.963478, 9.98451], [-83.961903, 9.984649], [-83.9617, 9.98473], [-83.961385, 9.985002], [-83.961266, 9.985269], [-83.961222, 9.985447], [-83.961305, 9.986313], [-83.961268, 9.986821], [-83.961181, 9.987248], [-83.96072, 9.988033], [-83.959904, 9.988862], [-83.95984, 9.989075], [-83.959846, 9.989243], [-83.959879, 9.989348], [-83.960206, 9.990295], [-83.960304, 9.990499], [-83.960424, 9.990622], [-83.960555, 9.990702], [-83.96159, 9.990994], [-83.961829, 9.991168], [-83.961959, 9.991347], [-83.961988, 9.991549], [-83.961955, 9.991693], [-83.961875, 9.99179], [-83.9618, 9.991871], [-83.961697, 9.991907], [-83.961562, 9.991903], [-83.961448, 9.991853], [-83.961373, 9.991772], [-83.96117, 9.991438], [-83.961016, 9.991357], [-83.960841, 9.991349], [-83.960702, 9.991386], [-83.960408, 9.991562], [-83.960365, 9.991699], [-83.960377, 9.991794], [-83.960793, 9.992558], [-83.960797, 9.992697], [-83.960746, 9.992801], [-83.960604, 9.992921], [-83.960367, 9.993008], [-83.960183, 9.993126], [-83.960115, 9.993205], [-83.96007, 9.993443], [-83.960124, 9.993789], [-83.960469, 9.994831], [-83.960469, 9.994989], [-83.960416, 9.995119], [-83.960233, 9.995401], [-83.960096, 9.995479], [-83.959652, 9.995532], [-83.959558, 9.995577], [-83.9595, 9.995664], [-83.95949, 9.995869], [-83.959985, 9.997198], [-83.960058, 9.997336], [-83.960611, 9.997911], [-83.960668, 9.998001], [-83.960689, 9.998122], [-83.960671, 9.998266], [-83.960538, 9.998615], [-83.960052, 9.999389], [-83.959813, 9.999663], [-83.959679, 9.999745], [-83.9595, 9.999753], [-83.959409, 9.99973], [-83.959054, 9.999467], [-83.958755, 9.999395], [-83.958576, 9.999439], [-83.958403, 9.999562], [-83.957465, 10.000888], [-83.957417, 10.001066], [-83.957409, 10.001207], [-83.957434, 10.001365], [-83.957524, 10.001584], [-83.957666, 10.00173], [-83.958084, 10.002033], [-83.958476, 10.002463], [-83.958641, 10.002536], [-83.958849, 10.002594], [-83.959395, 10.002681], [-83.959602, 10.002821], [-83.959692, 10.002985], [-83.959728, 10.003177], [-83.959669, 10.003358], [-83.959433, 10.003606], [-83.959149, 10.003768], [-83.958997, 10.003831], [-83.95879, 10.003841], [-83.958723, 10.003866], [-83.958687, 10.003897], [-83.958662, 10.003969], [-83.95865, 10.004051], [-83.958676, 10.00413], [-83.958885, 10.004335], [-83.958918, 10.004413], [-83.958909, 10.004512], [-83.958806, 10.004735], [-83.958799, 10.004909], [-83.958853, 10.004993], [-83.959016, 10.005118], [-83.959062, 10.00518], [-83.959077, 10.005341], [-83.959046, 10.005388], [-83.958878, 10.005453], [-83.958705, 10.005435], [-83.958492, 10.005217], [-83.958401, 10.005168], [-83.958322, 10.00516], [-83.958252, 10.005179], [-83.958061, 10.005316], [-83.95799, 10.005345], [-83.957458, 10.005331], [-83.957365, 10.005348], [-83.957249, 10.005436], [-83.957226, 10.005505], [-83.95714, 10.006163], [-83.957052, 10.00628], [-83.956942, 10.006345], [-83.956861, 10.006371], [-83.956515, 10.006404], [-83.956192, 10.00636], [-83.956098, 10.006369], [-83.955839, 10.006501], [-83.955303, 10.006564], [-83.955166, 10.006536], [-83.955012, 10.006465], [-83.95484, 10.006482], [-83.954735, 10.006538], [-83.954654, 10.006603], [-83.954583, 10.006721], [-83.95454, 10.00686], [-83.954534, 10.007231], [-83.954562, 10.007361], [-83.95463, 10.00747], [-83.95482, 10.007593], [-83.954892, 10.007726], [-83.954941, 10.008074], [-83.954933, 10.00814], [-83.954896, 10.008201], [-83.954833, 10.008243], [-83.954473, 10.008322], [-83.954051, 10.008331], [-83.953979, 10.008362], [-83.953883, 10.008474], [-83.953809, 10.008656], [-83.953806, 10.009296], [-83.95384, 10.009829], [-83.95383, 10.009908], [-83.953722, 10.010061], [-83.95371, 10.010133], [-83.953847, 10.010444], [-83.953874, 10.010631], [-83.953833, 10.010889], [-83.953762, 10.010974], [-83.953221, 10.011156], [-83.952914, 10.011236], [-83.952619, 10.011372], [-83.952204, 10.011466], [-83.952102, 10.011602], [-83.9521, 10.011757], [-83.952353, 10.01196], [-83.952431, 10.012092], [-83.95246, 10.012341], [-83.952431, 10.012412], [-83.952394, 10.012505], [-83.952205, 10.012648], [-83.951714, 10.01292], [-83.951708, 10.013012], [-83.951703, 10.013098], [-83.951825, 10.013116], [-83.951939, 10.013182], [-83.951933, 10.013378], [-83.9518, 10.014019], [-83.951704, 10.014071], [-83.951049, 10.014186], [-83.95095, 10.014281], [-83.950897, 10.014352], [-83.951077, 10.014629], [-83.95106, 10.014751], [-83.950949, 10.014892], [-83.950549, 10.015125], [-83.950469, 10.015295], [-83.950498, 10.015413], [-83.950574, 10.01549], [-83.950718, 10.015557], [-83.950754, 10.015772], [-83.950726, 10.015976], [-83.950744, 10.016342], [-83.950823, 10.016469], [-83.95077, 10.016865], [-83.950679, 10.016993], [-83.950502, 10.017034], [-83.950368, 10.017036], [-83.950253, 10.017108], [-83.950147, 10.017273], [-83.950279, 10.017927], [-83.950254, 10.018124], [-83.950167, 10.018242], [-83.950022, 10.018271], [-83.949871, 10.018252], [-83.949511, 10.018136], [-83.949445, 10.018154], [-83.949346, 10.018274], [-83.949227, 10.01845], [-83.949144, 10.018628], [-83.949125, 10.018738], [-83.949169, 10.018851], [-83.949333, 10.019077], [-83.949318, 10.019418], [-83.949287, 10.019582], [-83.949255, 10.019712], [-83.94922, 10.019793], [-83.948957, 10.020037], [-83.948716, 10.020276], [-83.948683, 10.020357], [-83.948683, 10.02046], [-83.948706, 10.020646], [-83.948742, 10.020815], [-83.948764, 10.020978], [-83.948778, 10.021079], [-83.948761, 10.021143], [-83.948703, 10.021176], [-83.948202, 10.021134], [-83.948005, 10.021061], [-83.947903, 10.020995], [-83.947815, 10.020991], [-83.94777, 10.021011], [-83.947746, 10.021051], [-83.947804, 10.021271], [-83.947812, 10.021704], [-83.947812, 10.021846], [-83.948123, 10.022219], [-83.948011, 10.022429], [-83.947706, 10.022448], [-83.947093, 10.022287], [-83.946515, 10.022224], [-83.945808, 10.021681], [-83.945681, 10.021378], [-83.945479, 10.021277], [-83.945308, 10.020986], [-83.944997, 10.020778], [-83.944679, 10.020402], [-83.944493, 10.01997], [-83.944254, 10.019773], [-83.944205, 10.01981], [-83.944009, 10.01996], [-83.943864, 10.020207], [-83.943681, 10.020425], [-83.94384, 10.020773], [-83.94384, 10.02125], [-83.943723, 10.021519], [-83.943381, 10.02163], [-83.943166, 10.021577], [-83.94292, 10.021059], [-83.942737, 10.020933], [-83.942617, 10.02098], [-83.942576, 10.02111], [-83.942558, 10.02132], [-83.94265, 10.02157], [-83.942651, 10.021821], [-83.942823, 10.022014], [-83.943199, 10.022206], [-83.943596, 10.022343], [-83.943987, 10.022618], [-83.944037, 10.022804], [-83.943834, 10.022985], [-83.943724, 10.023178], [-83.943869, 10.023616], [-83.944025, 10.02388], [-83.944373, 10.024033], [-83.944679, 10.024292], [-83.944851, 10.02463], [-83.945108, 10.025016], [-83.945291, 10.025116], [-83.945538, 10.02537], [-83.945591, 10.025507], [-83.945495, 10.025584], [-83.945377, 10.025597], [-83.945139, 10.025637], [-83.944945, 10.025635], [-83.944811, 10.025693], [-83.944765, 10.025848], [-83.944773, 10.026025], [-83.944738, 10.026168], [-83.944663, 10.0263], [-83.944427, 10.026347], [-83.944046, 10.026152], [-83.943636, 10.025833], [-83.943499, 10.025666], [-83.943031, 10.025318], [-83.942718, 10.025299], [-83.942396, 10.025173], [-83.942289, 10.025232], [-83.942319, 10.025468], [-83.942165, 10.025637], [-83.941839, 10.025797], [-83.94167, 10.025782], [-83.941495, 10.025659], [-83.941376, 10.025669], [-83.941267, 10.026141], [-83.941557, 10.026479], [-83.941997, 10.026786], [-83.942351, 10.026986], [-83.942651, 10.027324], [-83.943016, 10.027662], [-83.943245, 10.028051], [-83.943388, 10.028164], [-83.943518, 10.028311], [-83.943626, 10.028478], [-83.943702, 10.028583], [-83.943698, 10.028675], [-83.943617, 10.02876], [-83.943497, 10.028744], [-83.943248, 10.028613], [-83.943067, 10.028589], [-83.942871, 10.028465], [-83.942704, 10.028404], [-83.94259, 10.028322], [-83.942359, 10.028382], [-83.942209, 10.028257], [-83.942122, 10.028086], [-83.941858, 10.028011], [-83.941604, 10.028108], [-83.941457, 10.028206], [-83.941413, 10.028292], [-83.941366, 10.028691], [-83.941399, 10.028894], [-83.941596, 10.029173], [-83.941679, 10.029477], [-83.94174, 10.029585], [-83.941913, 10.029676], [-83.942098, 10.02989], [-83.942173, 10.030115], [-83.942137, 10.030209], [-83.942171, 10.030324], [-83.942335, 10.030603], [-83.942471, 10.030723], [-83.942554, 10.030845], [-83.942636, 10.030948], [-83.942639, 10.031172], [-83.942566, 10.031268], [-83.942484, 10.03137], [-83.942424, 10.031378], [-83.942281, 10.031376], [-83.942082, 10.031429], [-83.942018, 10.031474], [-83.941969, 10.031587], [-83.941987, 10.031727], [-83.941943, 10.031857], [-83.94188, 10.031947], [-83.941834, 10.031952], [-83.941703, 10.031898], [-83.941617, 10.031895], [-83.941601, 10.032026], [-83.941707, 10.032341], [-83.941705, 10.032477], [-83.94165, 10.032633], [-83.94142, 10.032683], [-83.941315, 10.032631], [-83.94114, 10.032501], [-83.941021, 10.032362], [-83.940872, 10.032186], [-83.940831, 10.031994], [-83.940754, 10.031812], [-83.940624, 10.031697], [-83.940269, 10.031169], [-83.940075, 10.031092], [-83.939755, 10.030808], [-83.939566, 10.030856], [-83.939242, 10.030829], [-83.939186, 10.030766], [-83.939165, 10.030705], [-83.939047, 10.030609], [-83.938958, 10.030636], [-83.938786, 10.030791], [-83.938746, 10.030801], [-83.938699, 10.030764], [-83.93866, 10.030652], [-83.938587, 10.030652], [-83.938525, 10.030695], [-83.938357, 10.030623], [-83.938312, 10.030628], [-83.938249, 10.030684], [-83.938204, 10.030918], [-83.938125, 10.030989], [-83.937988, 10.031036], [-83.93792, 10.031184], [-83.937843, 10.031229], [-83.93777, 10.03126], [-83.937715, 10.031198], [-83.937558, 10.031153], [-83.937314, 10.031344], [-83.937044, 10.031358], [-83.936751, 10.031571], [-83.936429, 10.031677], [-83.936236, 10.031624], [-83.936069, 10.031186], [-83.935678, 10.031212], [-83.935345, 10.031117], [-83.935088, 10.031297], [-83.934997, 10.031278], [-83.93486, 10.031205], [-83.934753, 10.031156], [-83.934875, 10.030756], [-83.934748, 10.030708], [-83.934462, 10.030896], [-83.934302, 10.0311], [-83.934224, 10.031144], [-83.934181, 10.031197], [-83.934191, 10.031396], [-83.934167, 10.031505], [-83.934105, 10.031632], [-83.933613, 10.031871], [-83.933456, 10.03197], [-83.933367, 10.031996], [-83.933114, 10.031935], [-83.932804, 10.031934], [-83.932771, 10.031872], [-83.93285, 10.031684], [-83.932863, 10.031413], [-83.932934, 10.031223], [-83.932965, 10.030991], [-83.932963, 10.03064], [-83.932784, 10.030717], [-83.93267, 10.030885], [-83.932523, 10.031017], [-83.932288, 10.031134], [-83.932142, 10.031088], [-83.932068, 10.031018], [-83.931965, 10.03073], [-83.931838, 10.030559], [-83.93175, 10.030478], [-83.931641, 10.030269], [-83.931537, 10.03015], [-83.931424, 10.030064], [-83.931329, 10.030096], [-83.931244, 10.030205], [-83.931381, 10.030494], [-83.931444, 10.031176], [-83.931417, 10.031258], [-83.931322, 10.031331], [-83.930852, 10.031378], [-83.930603, 10.03108], [-83.930494, 10.031173], [-83.930523, 10.031455], [-83.930437, 10.031677], [-83.930708, 10.031871], [-83.930767, 10.032087], [-83.930549, 10.032562], [-83.930242, 10.033112], [-83.930227, 10.033574], [-83.930565, 10.033811], [-83.930603, 10.034144], [-83.930839, 10.03472], [-83.930732, 10.035068], [-83.930625, 10.035274], [-83.930107, 10.035468], [-83.929857, 10.035539], [-83.929895, 10.035723], [-83.930179, 10.036151], [-83.930582, 10.036357], [-83.930678, 10.0366], [-83.930678, 10.036822], [-83.930506, 10.037044], [-83.929863, 10.037382], [-83.929755, 10.037699], [-83.929755, 10.037699]]}}, {"type": "Feature", "properties": {"routeId": "R142-02", "name": "Ramal Las Nubes", "km": 6.51}, "geometry": {"type": "LineString", "coordinates": [[-84.007282, 9.976073], [-84.007224, 9.976498], [-84.007114, 9.977399], [-84.00705, 9.978095], [-84.007031, 9.978227], [-84.0068, 9.979105], [-84.006727, 9.979345], [-84.006678, 9.979507], [-84.006638, 9.979601], [-84.00662, 9.979646], [-84.006405, 9.979998], [-84.006123, 9.980325], [-84.006104, 9.980365], [-84.006031, 9.98067], [-84.005958, 9.980984], [-84.005912, 9.981085], [-84.005868, 9.981163], [-84.005774, 9.981269], [-84.005676, 9.981337], [-84.005588, 9.981374], [-84.005481, 9.981407], [-84.005304, 9.981422], [-84.00511, 9.981417], [-84.004897, 9.9814], [-84.004155, 9.981341], [-84.003955, 9.981333], [-84.003755, 9.98131], [-84.003387, 9.981237], [-84.003101, 9.981118], [-84.002723, 9.98106], [-84.001959, 9.980992], [-84.001565, 9.98101], [-84.001296, 9.981077], [-84.000874, 9.981182], [-84.000361, 9.981295], [-83.999935, 9.981315], [-83.999797, 9.98132], [-83.999595, 9.981308], [-83.999187, 9.981278], [-83.998753, 9.981219], [-83.998467, 9.981187], [-83.998011, 9.981137], [-83.997872, 9.981122], [-83.997294, 9.981064], [-83.996799, 9.981042], [-83.996159, 9.981072], [-83.995733, 9.981092], [-83.9956, 9.9811], [-83.995355, 9.981116], [-83.995305, 9.981117], [-83.99487, 9.981125], [-83.99453, 9.981141], [-83.994285, 9.981137], [-83.994119, 9.981114], [-83.994025, 9.981086], [-83.993867, 9.981017], [-83.993718, 9.980942], [-83.993487, 9.980752], [-83.993366, 9.980582], [-83.993217, 9.980396], [-83.993061, 9.98025], [-83.992814, 9.980085], [-83.992235, 9.979765], [-83.992103, 9.979721], [-83.991976, 9.979712], [-83.991872, 9.979737], [-83.991598, 9.979802], [-83.991474, 9.979849], [-83.991273, 9.979926], [-83.991183, 9.979961], [-83.991106, 9.97999], [-83.990974, 9.980127], [-83.990743, 9.980479], [-83.990401, 9.98086], [-83.99004, 9.981262], [-83.989882, 9.981405], [-83.989738, 9.981536], [-83.989603, 9.981622], [-83.989418, 9.98174], [-83.989378, 9.981766], [-83.989009, 9.981892], [-83.988643, 9.981945], [-83.98832, 9.981954], [-83.987933, 9.981897], [-83.987019, 9.981553], [-83.986676, 9.981475], [-83.986318, 9.98146], [-83.985776, 9.981493], [-83.985513, 9.98151], [-83.984882, 9.981562], [-83.984013, 9.981679], [-83.983717, 9.981746], [-83.983677, 9.981755], [-83.983499, 9.981791], [-83.982385, 9.982056], [-83.982166, 9.982144], [-83.981961, 9.982273], [-83.98178, 9.982426], [-83.981292, 9.982862], [-83.980524, 9.983547], [-83.980194, 9.983719], [-83.979981, 9.983778], [-83.979836, 9.983804], [-83.979533, 9.983797], [-83.979445, 9.983777], [-83.97925, 9.983732], [-83.978859, 9.983531], [-83.978548, 9.983425], [-83.978342, 9.983409], [-83.977967, 9.983501], [-83.977536, 9.983638], [-83.977446, 9.983645], [-83.976705, 9.983447], [-83.976205, 9.983367], [-83.974469, 9.983195], [-83.973543, 9.982981], [-83.973084, 9.982947], [-83.97268, 9.98296], [-83.972366, 9.982957], [-83.972124, 9.982888], [-83.971902, 9.982775], [-83.971655, 9.982534], [-83.971526, 9.982252], [-83.971459, 9.981708], [-83.971333, 9.981413], [-83.9712, 9.981287], [-83.970984, 9.981192], [-83.970725, 9.981168], [-83.969856, 9.981284], [-83.969601, 9.981328], [-83.969412, 9.981406], [-83.969212, 9.981521], [-83.968968, 9.981697], [-83.968914, 9.981741], [-83.968396, 9.982106], [-83.968245, 9.98225], [-83.968122, 9.982473], [-83.968077, 9.98265], [-83.968015, 9.982892], [-83.967972, 9.982987], [-83.967834, 9.98315], [-83.967743, 9.983223], [-83.967618, 9.98327], [-83.96739, 9.983306], [-83.967177, 9.983273], [-83.967076, 9.983233], [-83.966976, 9.983158], [-83.966874, 9.983044], [-83.966706, 9.982808], [-83.966542, 9.982621], [-83.966277, 9.982509], [-83.966011, 9.982495], [-83.965885, 9.982519], [-83.964567, 9.982939], [-83.964289, 9.983057], [-83.964176, 9.983132], [-83.964051, 9.98331], [-83.963992, 9.983545], [-83.964015, 9.983991], [-83.963977, 9.984139], [-83.963798, 9.984362], [-83.963664, 9.984458], [-83.963478, 9.98451], [-83.961903, 9.984649], [-83.9617, 9.98473], [-83.961385, 9.985002], [-83.961266, 9.985269], [-83.961222, 9.985447], [-83.961305, 9.986313], [-83.961268, 9.986821], [-83.961181, 9.987248], [-83.96072, 9.988033], [-83.960535, 9.98822]]}}, {"type": "Feature", "properties": {"routeId": "R142-03", "name": "Ramal Dulce Nombre", "km": 1.83}, "geometry": {"type": "LineString", "coordinates": [[-84.007282, 9.976073], [-84.007224, 9.976498], [-84.007114, 9.977399], [-84.008015, 9.977492], [-84.00893, 9.977599], [-84.009807, 9.977689], [-84.010873, 9.977801], [-84.01133, 9.977857], [-84.011514, 9.97788], [-84.011705, 9.977916], [-84.011986, 9.977991], [-84.011793, 9.978464], [-84.011571, 9.979001], [-84.011553, 9.979048], [-84.011329, 9.979482], [-84.01131, 9.979547], [-84.011267, 9.979692], [-84.011278, 9.979819], [-84.011301, 9.979929], [-84.011312, 9.979979], [-84.011405, 9.980358], [-84.011416, 9.980511], [-84.011412, 9.980627], [-84.011412, 9.980679], [-84.011393, 9.980888], [-84.01136, 9.981027], [-84.011305, 9.98119], [-84.011219, 9.981358], [-84.011063, 9.981603], [-84.010932, 9.98181], [-84.010731, 9.982124], [-84.010721, 9.982166], [-84.010724, 9.982212], [-84.010753, 9.982229], [-84.010792, 9.982243], [-84.011532, 9.982403], [-84.012225, 9.982553], [-84.012474, 9.982591], [-84.012879, 9.982618], [-84.013035, 9.982628], [-84.013306, 9.982655], [-84.013402, 9.982677], [-84.013496, 9.982709], [-84.013682, 9.982788], [-84.013699, 9.982795], [-84.014019, 9.982936], [-84.014205, 9.983018], [-84.014722, 9.983231], [-84.014961, 9.98331], [-84.015175, 9.983447], [-84.015283, 9.983545], [-84.015355, 9.983603], [-84.015548, 9.98376], [-84.015634, 9.983827], [-84.015394, 9.984356]]}}, {"type": "Feature", "properties": {"routeId": "R142-04", "name": "Ramal Patio de Agua", "km": 6.14}, "geometry": {"type": "LineString", "coordinates": [[-84.007282, 9.976073], [-84.007224, 9.976498], [-84.007114, 9.977399], [-84.00705, 9.978095], [-84.007031, 9.978227], [-84.0068, 9.979105], [-84.006727, 9.979345], [-84.006678, 9.979507], [-84.006638, 9.979601], [-84.00662, 9.979646], [-84.006405, 9.979998], [-84.006123, 9.980325], [-84.006104, 9.980365], [-84.006031, 9.98067], [-84.005958, 9.980984], [-84.005912, 9.981085], [-84.005868, 9.981163], [-84.005774, 9.981269], [-84.005676, 9.981337], [-84.005588, 9.981374], [-84.005481, 9.981407], [-84.005304, 9.981422], [-84.00511, 9.981417], [-84.004897, 9.9814], [-84.004155, 9.981341], [-84.003955, 9.981333], [-84.003755, 9.98131], [-84.003387, 9.981237], [-84.003101, 9.981118], [-84.002723, 9.98106], [-84.001959, 9.980992], [-84.001565, 9.98101], [-84.001296, 9.981077], [-84.000874, 9.981182], [-84.000361, 9.981295], [-83.999935, 9.981315], [-83.999797, 9.98132], [-83.999595, 9.981308], [-83.999187, 9.981278], [-83.998753, 9.981219], [-83.998467, 9.981187], [-83.998011, 9.981137], [-83.997872, 9.981122], [-83.997294, 9.981064], [-83.996799, 9.981042], [-83.996159, 9.981072], [-83.995733, 9.981092], [-83.9956, 9.9811], [-83.995355, 9.981116], [-83.995305, 9.981117], [-83.99487, 9.981125], [-83.99453, 9.981141], [-83.994285, 9.981137], [-83.994119, 9.981114], [-83.994025, 9.981086], [-83.993867, 9.981017], [-83.993718, 9.980942], [-83.993487, 9.980752], [-83.993366, 9.980582], [-83.993217, 9.980396], [-83.993061, 9.98025], [-83.992814, 9.980085], [-83.992235, 9.979765], [-83.992103, 9.979721], [-83.991976, 9.979712], [-83.991872, 9.979737], [-83.991598, 9.979802], [-83.991474, 9.979849], [-83.991273, 9.979926], [-83.991183, 9.979961], [-83.991106, 9.97999], [-83.990974, 9.980127], [-83.990743, 9.980479], [-83.990401, 9.98086], [-83.99004, 9.981262], [-83.989882, 9.981405], [-83.989738, 9.981536], [-83.989603, 9.981622], [-83.989418, 9.98174], [-83.989378, 9.981766], [-83.989009, 9.981892], [-83.988643, 9.981945], [-83.98832, 9.981954], [-83.987933, 9.981897], [-83.987019, 9.981553], [-83.986676, 9.981475], [-83.986318, 9.98146], [-83.985776, 9.981493], [-83.985513, 9.98151], [-83.984882, 9.981562], [-83.984013, 9.981679], [-83.983717, 9.981746], [-83.983677, 9.981755], [-83.983499, 9.981791], [-83.982385, 9.982056], [-83.982166, 9.982144], [-83.981961, 9.982273], [-83.98178, 9.982426], [-83.981292, 9.982862], [-83.980524, 9.983547], [-83.980194, 9.983719], [-83.979981, 9.983778], [-83.979836, 9.983804], [-83.979533, 9.983797], [-83.979445, 9.983777], [-83.97925, 9.983732], [-83.978859, 9.983531], [-83.978548, 9.983425], [-83.978342, 9.983409], [-83.977967, 9.983501], [-83.977536, 9.983638], [-83.977446, 9.983645], [-83.976705, 9.983447], [-83.976205, 9.983367], [-83.974469, 9.983195], [-83.973543, 9.982981], [-83.973084, 9.982947], [-83.97268, 9.98296], [-83.972366, 9.982957], [-83.972124, 9.982888], [-83.971902, 9.982775], [-83.971655, 9.982534], [-83.971526, 9.982252], [-83.971459, 9.981708], [-83.971333, 9.981413], [-83.971448, 9.981356], [-83.971505, 9.981346], [-83.971607, 9.98134], [-83.971843, 9.981325], [-83.972097, 9.981264], [-83.97232, 9.981195], [-83.972468, 9.981121], [-83.972564, 9.981047], [-83.972671, 9.980939], [-83.972738, 9.980796], [-83.972765, 9.980669], [-83.972746, 9.980588], [-83.972717, 9.980479], [-83.972669, 9.980376], [-83.972602, 9.980292], [-83.972548, 9.980255], [-83.972521, 9.980215], [-83.972521, 9.980178], [-83.972553, 9.980099], [-83.972612, 9.980043], [-83.972749, 9.979964], [-83.972848, 9.979906], [-83.972948, 9.979877], [-83.973063, 9.979877], [-83.973176, 9.979906], [-83.973457, 9.979983], [-83.973532, 9.979996], [-83.973583, 9.979983], [-83.973634, 9.979948], [-83.973709, 9.979875], [-83.97313, 9.979325], [-83.972948, 9.979099], [-83.972308, 9.978311], [-83.971914, 9.977924], [-83.971152, 9.977327], [-83.970723, 9.977009], [-83.970475, 9.976885], [-83.970248, 9.976841], [-83.969982, 9.976866], [-83.969617, 9.97689], [-83.969276, 9.976779], [-83.968445, 9.976539], [-83.967871, 9.976351], [-83.967492, 9.976166], [-83.967317, 9.97608], [-83.967087, 9.975929], [-83.966823, 9.975626], [-83.966557, 9.975759], [-83.966452, 9.97586], [-83.966428, 9.975912], [-83.966428, 9.975912]]}}, {"type": "Feature", "properties": {"routeId": "R142-05", "name": "Ramal San Rafael", "km": 2.34}, "geometry": {"type": "LineString", "coordinates": [[-84.007282, 9.976073], [-84.007224, 9.976498], [-84.007114, 9.977399], [-84.00705, 9.978095], [-84.007031, 9.978227], [-84.0068, 9.979105], [-84.006727, 9.979345], [-84.006678, 9.979507], [-84.006638, 9.979601], [-84.00662, 9.979646], [-84.006405, 9.979998], [-84.006123, 9.980325], [-84.006104, 9.980365], [-84.006031, 9.98067], [-84.005958, 9.980984], [-84.005912, 9.981085], [-84.005868, 9.981163], [-84.005774, 9.981269], [-84.005676, 9.981337], [-84.005588, 9.981374], [-84.005481, 9.981407], [-84.005304, 9.981422], [-84.00511, 9.981417], [-84.004897, 9.9814], [-84.004155, 9.981341], [-84.003955, 9.981333], [-84.003755, 9.98131], [-84.003387, 9.981237], [-84.003101, 9.981118], [-84.002723, 9.98106], [-84.001959, 9.980992], [-84.001565, 9.98101], [-84.001296, 9.981077], [-84.000874, 9.981182], [-84.000361, 9.981295], [-83.999935, 9.981315], [-83.999797, 9.98132], [-83.999595, 9.981308], [-83.999187, 9.981278], [-83.998753, 9.981219], [-83.998467, 9.981187], [-83.998011, 9.981137], [-83.997872, 9.981122], [-83.997294, 9.981064], [-83.996799, 9.981042], [-83.996159, 9.981072], [-83.995733, 9.981092], [-83.9956, 9.9811], [-83.995355, 9.981116], [-83.995305, 9.981117], [-83.99487, 9.981125], [-83.99453, 9.981141], [-83.994285, 9.981137], [-83.994119, 9.981114], [-83.994025, 9.981086], [-83.993867, 9.981017], [-83.993718, 9.980942], [-83.993487, 9.980752], [-83.993366, 9.980582], [-83.993217, 9.980396], [-83.993061, 9.98025], [-83.992814, 9.980085], [-83.992235, 9.979765], [-83.992103, 9.979721], [-83.991976, 9.979712], [-83.991872, 9.979737], [-83.991598, 9.979802], [-83.991708, 9.980128], [-83.991684, 9.980138], [-83.991744, 9.980347], [-83.991769, 9.980377], [-83.991798, 9.980417], [-83.991815, 9.980472], [-83.991828, 9.98069]]}}, {"type": "Feature", "properties": {"routeId": "R142-06", "name": "Ramal Patalillo", "km": 2.48}, "geometry": {"type": "LineString", "coordinates": [[-84.007282, 9.976073], [-84.007224, 9.976498], [-84.007114, 9.977399], [-84.008015, 9.977492], [-84.00893, 9.977599], [-84.009807, 9.977689], [-84.010873, 9.977801], [-84.01133, 9.977857], [-84.011514, 9.97788], [-84.011705, 9.977916], [-84.011986, 9.977991], [-84.012159, 9.977572], [-84.012478, 9.976874], [-84.012516, 9.9768], [-84.012564, 9.97673], [-84.012715, 9.976576], [-84.012907, 9.976433], [-84.013142, 9.976258], [-84.013308, 9.976143], [-84.013423, 9.976058], [-84.013631, 9.976045], [-84.013788, 9.976032], [-84.014109, 9.976065], [-84.015002, 9.976225], [-84.015274, 9.976261], [-84.015526, 9.976271], [-84.01576, 9.976266], [-84.015876, 9.976258], [-84.016098, 9.976205], [-84.016361, 9.976132], [-84.016578, 9.976052], [-84.017457, 9.975662], [-84.017926, 9.975485], [-84.018147, 9.975388], [-84.018192, 9.975368], [-84.018266, 9.975339], [-84.018589, 9.975188], [-84.018779, 9.97509], [-84.019015, 9.974969], [-84.019141, 9.974905], [-84.019387, 9.974779], [-84.019536, 9.974698], [-84.019946, 9.974489], [-84.020075, 9.974422], [-84.020489, 9.974245], [-84.020549, 9.97422], [-84.020722, 9.974154], [-84.020943, 9.974065], [-84.020987, 9.974049], [-84.021132, 9.973995], [-84.021482, 9.973859], [-84.021678, 9.973808], [-84.021775, 9.973793], [-84.021834, 9.973784], [-84.022083, 9.973776], [-84.022342, 9.973768], [-84.022543, 9.973758], [-84.022833, 9.973743], [-84.023132, 9.97373], [-84.023389, 9.97371], [-84.024017, 9.973634], [-84.024521, 9.973545], [-84.024695, 9.973505], [-84.025066, 9.973412], [-84.025224, 9.973372], [-84.025349, 9.973333], [-84.025733, 9.973201], [-84.025981, 9.973087], [-84.026101, 9.973012], [-84.02635, 9.973514]]}}, {"type": "Feature", "properties": {"routeId": "R142-07", "name": "Ramal 07 (por definir)", "km": 1.43}, "geometry": {"type": "LineString", "coordinates": [[-84.007282, 9.976073], [-84.007224, 9.976498], [-84.007114, 9.977399], [-84.00705, 9.978095], [-84.007031, 9.978227], [-84.0068, 9.979105], [-84.006727, 9.979345], [-84.006678, 9.979507], [-84.006638, 9.979601], [-84.00662, 9.979646], [-84.006405, 9.979998], [-84.006123, 9.980325], [-84.006104, 9.980365], [-84.006031, 9.98067], [-84.005958, 9.980984], [-84.005912, 9.981085], [-84.005868, 9.981163], [-84.005774, 9.981269], [-84.005676, 9.981337], [-84.005793, 9.981378], [-84.005859, 9.981428], [-84.005718, 9.981922], [-84.005666, 9.982103], [-84.005626, 9.982242], [-84.005574, 9.982352], [-84.005494, 9.98249], [-84.005308, 9.982663], [-84.005092, 9.982832], [-84.00484, 9.983079], [-84.004743, 9.983249], [-84.00471, 9.983308], [-84.004574, 9.983617], [-84.004536, 9.983732], [-84.004513, 9.983811], [-84.004509, 9.983843], [-84.004501, 9.983908], [-84.004521, 9.983962], [-84.004572, 9.984087], [-84.004655, 9.984271], [-84.004743, 9.984486], [-84.004802, 9.984634], [-84.004818, 9.98472], [-84.004825, 9.984833], [-84.0048, 9.985063], [-84.004761, 9.985356], [-84.004725, 9.985593], [-84.004694, 9.985755], [-84.004678, 9.985947], [-84.004663, 9.986093], [-84.004724, 9.986238], [-84.004811, 9.986378], [-84.005009, 9.98658], [-84.005247, 9.98675], [-84.005338, 9.986875], [-84.005462, 9.987104], [-84.005635, 9.987376], [-84.005679, 9.987446], [-84.005697, 9.987496], [-84.005772, 9.987664]]}}, {"type": "Feature", "properties": {"routeId": "R142-08", "name": "Ramal 08 (por definir)", "km": 3.78}, "geometry": {"type": "LineString", "coordinates": [[-84.007282, 9.976073], [-84.007224, 9.976498], [-84.006329, 9.976408], [-84.00544, 9.97631], [-84.005335, 9.977111], [-84.005325, 9.977183], [-84.0053, 9.977421], [-84.005281, 9.977487], [-84.005255, 9.977531], [-84.005221, 9.977556], [-84.005101, 9.977596], [-84.004479, 9.977725], [-84.004309, 9.977745], [-84.004149, 9.97774], [-84.003984, 9.977726], [-84.00377, 9.977668], [-84.003667, 9.97762], [-84.003558, 9.977562], [-84.003458, 9.977486], [-84.003403, 9.977443], [-84.002939, 9.977104], [-84.002768, 9.976979], [-84.002653, 9.976892], [-84.002537, 9.976831], [-84.00224, 9.976752], [-84.002107, 9.976725], [-84.001824, 9.976668], [-84.001679, 9.976648], [-84.001563, 9.976603], [-84.001394, 9.976519], [-84.001017, 9.976305], [-84.000796, 9.97621], [-84.000566, 9.976111], [-84.000507, 9.976069], [-84.000496, 9.976052], [-84.000477, 9.976022], [-84.000365, 9.975713], [-84.000357, 9.975691], [-84.000165, 9.975388], [-84.000029, 9.975233], [-83.999908, 9.975124], [-83.99982, 9.975057], [-83.999719, 9.974996], [-83.999608, 9.974959], [-83.999274, 9.974959], [-83.999187, 9.97494], [-83.999072, 9.974901], [-83.998906, 9.974793], [-83.99873, 9.974674], [-83.998429, 9.974543], [-83.998201, 9.974451], [-83.99803, 9.974366], [-83.997906, 9.974296], [-83.997826, 9.974207], [-83.997717, 9.973826], [-83.997714, 9.973817], [-83.997494, 9.972979], [-83.997475, 9.972809], [-83.99747, 9.972768], [-83.997466, 9.97265], [-83.997495, 9.972327], [-83.997522, 9.971958], [-83.997547, 9.971706], [-83.997629, 9.971077], [-83.997637, 9.971008], [-83.997684, 9.970637], [-83.997702, 9.970528], [-83.997747, 9.970166], [-83.997763, 9.970041], [-83.997815, 9.969623], [-83.99783, 9.96952], [-83.997829, 9.96949], [-83.997822, 9.969029], [-83.997745, 9.968885], [-83.997719, 9.968855], [-83.99752, 9.968641], [-83.997378, 9.968474], [-83.997378, 9.968429], [-83.997398, 9.968387], [-83.997456, 9.968311], [-83.997752, 9.968144], [-83.997867, 9.968039], [-83.997963, 9.967922], [-83.998011, 9.967819], [-83.998048, 9.967667], [-83.998134, 9.967247], [-83.998166, 9.967179], [-83.998095, 9.967127], [-83.998064, 9.967097], [-83.997982, 9.967027], [-83.997904, 9.966909], [-83.997781, 9.966685], [-83.997587, 9.966228], [-83.997513, 9.966097], [-83.99745, 9.966009], [-83.997176, 9.965698], [-83.997057, 9.965585], [-83.99697, 9.965503], [-83.996853, 9.96542], [-83.996739, 9.965395], [-83.996635, 9.965393], [-83.996494, 9.965415], [-83.99616, 9.965549], [-83.995854, 9.96567], [-83.995607, 9.965745], [-83.995413, 9.965773], [-83.995218, 9.96578], [-83.995073, 9.965779], [-83.994899, 9.965766], [-83.994783, 9.965753], [-83.994702, 9.965646], [-83.994659, 9.965585], [-83.994512, 9.965405], [-83.994295, 9.965179], [-83.993683, 9.964666], [-83.993505, 9.964495], [-83.993331, 9.964349], [-83.993074, 9.96419], [-83.993042, 9.964159], [-83.99302, 9.96412], [-83.992988, 9.964101], [-83.992912, 9.964059], [-83.992896, 9.964047], [-83.992836, 9.964006], [-83.992829, 9.963998], [-83.99278, 9.963765], [-83.992745, 9.963611], [-83.992712, 9.96357], [-83.992675, 9.963552], [-83.992595, 9.963554], [-83.9925, 9.963579], [-83.992421, 9.963648], [-83.992339, 9.96372], [-83.992155, 9.963897], [-83.991786, 9.964159], [-83.991651, 9.964203], [-83.991102, 9.964202], [-83.99079, 9.964252], [-83.990656, 9.96426], [-83.990289, 9.96419], [-83.989311, 9.963923], [-83.988571, 9.96374], [-83.988384, 9.963713], [-83.986979, 9.963794], [-83.986809, 9.963794], [-83.986955, 9.964763]]}}, {"type": "Feature", "properties": {"routeId": "R142-09", "name": "Ramal 09 (por definir)", "km": 2.57}, "geometry": {"type": "LineString", "coordinates": [[-84.007282, 9.976073], [-84.007224, 9.976498], [-84.007114, 9.977399], [-84.008015, 9.977492], [-84.00893, 9.977599], [-84.009807, 9.977689], [-84.009896, 9.976805], [-84.009985, 9.975936], [-84.010056, 9.975444], [-84.010104, 9.97498], [-84.010122, 9.974632], [-84.01016, 9.974495], [-84.010185, 9.974433], [-84.010226, 9.974346], [-84.010291, 9.974232], [-84.010376, 9.974108], [-84.010619, 9.973906], [-84.010864, 9.973747], [-84.011419, 9.973402], [-84.011598, 9.973275], [-84.011836, 9.973006], [-84.011989, 9.972865], [-84.012115, 9.97273], [-84.012337, 9.972451], [-84.012603, 9.972065], [-84.0127, 9.971952], [-84.012794, 9.971844], [-84.012981, 9.971653], [-84.013182, 9.971593], [-84.013706, 9.971335], [-84.014125, 9.971139], [-84.014508, 9.970976], [-84.014676, 9.970893], [-84.014874, 9.970765], [-84.015147, 9.970502], [-84.015846, 9.969767], [-84.015999, 9.96963], [-84.016056, 9.969604], [-84.016594, 9.969384], [-84.016745, 9.969319], [-84.016888, 9.969255], [-84.017066, 9.969177], [-84.017202, 9.969125], [-84.017308, 9.969076], [-84.017403, 9.969025], [-84.017578, 9.968931], [-84.01805, 9.968662], [-84.018234, 9.968557], [-84.018175, 9.968396], [-84.01815, 9.968267], [-84.018154, 9.96813], [-84.018173, 9.968023], [-84.018271, 9.967631], [-84.018334, 9.967364], [-84.018397, 9.967097], [-84.018439, 9.966931], [-84.018438, 9.966866], [-84.01842, 9.966779], [-84.018325, 9.96627], [-84.018645, 9.965936], [-84.018318, 9.965603], [-84.018198, 9.96546], [-84.018246, 9.96499], [-84.018267, 9.964771], [-84.019973, 9.964644]]}}, {"type": "Feature", "properties": {"routeId": "R142-10", "name": "Ramal 10 (por definir)", "km": 3.0}, "geometry": {"type": "LineString", "coordinates": [[-84.007282, 9.976073], [-84.007224, 9.976498], [-84.007114, 9.977399], [-84.00705, 9.978095], [-84.007031, 9.978227], [-84.0068, 9.979105], [-84.006727, 9.979345], [-84.006678, 9.979507], [-84.006638, 9.979601], [-84.00662, 9.979646], [-84.006405, 9.979998], [-84.006123, 9.980325], [-84.006104, 9.980365], [-84.006031, 9.98067], [-84.005958, 9.980984], [-84.005912, 9.981085], [-84.005868, 9.981163], [-84.005774, 9.981269], [-84.005676, 9.981337], [-84.005588, 9.981374], [-84.005481, 9.981407], [-84.005304, 9.981422], [-84.00511, 9.981417], [-84.004897, 9.9814], [-84.004155, 9.981341], [-84.003955, 9.981333], [-84.003755, 9.98131], [-84.003387, 9.981237], [-84.003093, 9.981429], [-84.001747, 9.982447], [-84.001604, 9.98257], [-84.001493, 9.982664], [-84.001439, 9.982709], [-84.001173, 9.982935], [-84.000365, 9.983641], [-84.000016, 9.983861], [-83.999557, 9.984141], [-83.999265, 9.98437], [-83.99905, 9.984575], [-83.998805, 9.984777], [-83.998668, 9.984854], [-83.998329, 9.985061], [-83.997919, 9.985384], [-83.997854, 9.985436], [-83.997574, 9.985706], [-83.997354, 9.985945], [-83.997003, 9.986221], [-83.996902, 9.986258], [-83.996548, 9.986377], [-83.996339, 9.986448], [-83.9956, 9.986711], [-83.995389, 9.986777], [-83.995183, 9.986814], [-83.994963, 9.98683], [-83.99477, 9.986863], [-83.994389, 9.986941], [-83.994023, 9.987034], [-83.993861, 9.987124], [-83.99366, 9.987326], [-83.99348, 9.987481], [-83.993281, 9.9876], [-83.993025, 9.987782], [-83.992747, 9.98801], [-83.992383, 9.988307], [-83.992181, 9.988502], [-83.992006, 9.988629], [-83.991774, 9.988746], [-83.99116, 9.988887], [-83.990734, 9.989664], [-83.990725, 9.989783], [-83.990767, 9.989933], [-83.99086, 9.990092], [-83.991033, 9.990328], [-83.991215, 9.990502], [-83.991451, 9.990659], [-83.991535, 9.990699], [-83.991551, 9.99075], [-83.991521, 9.990807], [-83.991191, 9.991089], [-83.991117, 9.991111], [-83.991049, 9.991089], [-83.99095, 9.991048], [-83.990901, 9.991052], [-83.990889, 9.99109], [-83.990917, 9.991155], [-83.991007, 9.991273], [-83.991063, 9.991347], [-83.991077, 9.991449], [-83.991074, 9.991584], [-83.991153, 9.992101], [-83.991188, 9.992211], [-83.991284, 9.99237], [-83.991341, 9.99245]]}}]}